NORAD_CAT_ID,OBJECT_NAME,OBJECT_TYPE,EPOCH,MEAN_MOTION,ECCENTRICITY,INCLINATION,RA_OF_ASC_NODE,ARG_OF_PERICENTER,MEAN_ANOMALY,BSTAR,MEAN_MOTION_DOT,MEAN_MOTION_DDOT,TLE_LINE0,TLE_LINE1,TLE_LINE2,SEMIMAJOR_AXIS,PERIOD,APOGEE,PERIGEE,DECAYED
53894.0,STARLINK-5043,PAYLOAD,2024-02-17 09:24:06,15.08833834,0.0001419,53.2182,96.8616,98.8748,261.2404,0.00015123,2.119e-05,0.0,0 STARLINK-5043,1 53894U 22119J   24048.39174739  .00002119  00000-0  15123-3 0  9993,2 53894  53.2182  96.8616 0001419  98.8748 261.2404 15.08833834 77845,6917.899,95.438,540.746,538.783,0.0
53894.0,STARLINK-5043,PAYLOAD,2024-02-17 20:31:48,15.08841784,0.0001707,53.2167,94.7817,94.3743,265.7444,0.00028694,4.282e-05,0.0,0 STARLINK-5043,1 53894U 22119J   24048.85542667  .00004282  00000-0  28694-3 0  9993,2 53894  53.2167  94.7817 0001707  94.3743 265.7444 15.08841784 78335,6917.875,95.437,540.921,538.559,0.0
53894.0,STARLINK-5043,PAYLOAD,2024-02-18 09:14:53,15.08856358,0.0001757,53.2167,92.4019,93.9409,266.1784,0.0004845,7.435e-05,0.0,0 STARLINK-5043,1 53894U 22119J   24049.38534025  .00007435  00000-0  48450-3 0  9996,2 53894  53.2167  92.4019 0001757  93.9409 266.1784 15.08856358 77999,6917.83,95.437,540.911,538.48,0.0
53894.0,STARLINK-5043,PAYLOAD,2024-02-18 20:22:35,15.08844578,0.0001973,53.2181,90.3192,93.4761,266.6457,0.00022396,3.278e-05,0.0,0 STARLINK-5043,1 53894U 22119J   24049.84902191  .00003278  00000-0  22396-3 0  9992,2 53894  53.2181  90.3192 0001973  93.4761 266.6457 15.08844578 78488,6917.866,95.437,541.096,538.367,0.0
53894.0,STARLINK-5043,PAYLOAD,2024-02-19 02:44:08,15.08846991,0.0001951,53.217,89.1314,93.1481,266.9734,0.00018784,2.703e-05,0.0,0 STARLINK-5043,1 53894U 22119J   24050.11398211  .00002703  00000-0  18784-3 0  9994,2 53894  53.2170  89.1314 0001951  93.1481 266.9734 15.08846991 78101,6917.859,95.437,541.074,538.374,0.0
53894.0,STARLINK-5043,PAYLOAD,2024-02-19 09:05:40,15.0884802,0.00019,53.2161,87.9417,94.1202,266.0007,0.00018486,2.656e-05,0.0,0 STARLINK-5043,1 53894U 22119J   24050.37894069  .00002656  00000-0  18486-3 0  9990,2 53894  53.2161  87.9417 0001900  94.1202 266.0007 15.08848020 78566,6917.856,95.437,541.035,538.406,0.0
53894.0,STARLINK-5043,PAYLOAD,2024-02-20 02:34:55,15.08840445,0.0001618,53.2165,84.6717,95.3473,264.7704,4.62e-05,4.47e-06,0.0,0 STARLINK-5043,1 53894U 22119J   24051.10758217  .00000447  00000-0  46200-4 0  9998,2 53894  53.2165  84.6717 0001618  95.3473 264.7704 15.08840445 78254,6917.879,95.438,540.863,538.625,0.0
53894.0,STARLINK-5043,PAYLOAD,2024-02-20 12:07:13,15.08845078,0.000159,53.216,82.8875,95.5929,264.5245,1.0543e-05,-1.2e-06,0.0,0 STARLINK-5043,1 53894U 22119J   24051.50502071 -.00000120  00000-0  10543-4 0  9997,2 53894  53.2160  82.8875 0001590  95.5929 264.5245 15.08845078 78739,6917.865,95.437,540.83,538.63,0.0
53894.0,STARLINK-5043,PAYLOAD,2024-02-21 00:50:19,15.08832808,0.0001378,53.2178,80.5104,94.981,265.1339,0.00016302,2.307e-05,0.0,0 STARLINK-5043,1 53894U 22119J   24052.03494770  .00002307  00000-0  16302-3 0  9998,2 53894  53.2178  80.5104 0001378  94.9810 265.1339 15.08832808 78394,6917.902,95.438,540.721,538.814,0.0
53894.0,STARLINK-5043,PAYLOAD,2024-02-21 11:58:01,15.08843932,0.0001562,53.2163,78.428,96.1778,263.9392,0.00015777,2.224e-05,0.0,0 STARLINK-5043,1 53894U 22119J   24052.49862282  .00002224  00000-0  15777-3 0  9998,2 53894  53.2163  78.4280 0001562  96.1778 263.9392 15.08843932 78464,6917.868,95.437,540.814,538.653,0.0
53894.0,STARLINK-5043,PAYLOAD,2024-02-21 18:19:33,15.08836492,0.0001582,53.2166,77.2406,98.0779,262.0393,-9.3617e-06,-4.37e-06,0.0,0 STARLINK-5043,1 53894U 22119J   24052.76358645 -.00000437  00000-0 -93617-5 0  9998,2 53894  53.2166  77.2406 0001582  98.0779 262.0393 15.08836492 78507,6917.891,95.438,540.851,538.662,0.0
53894.0,STARLINK-5043,PAYLOAD,2024-02-22 10:13:25,15.08838892,0.0001521,53.2176,74.266,100.9979,259.1184,0.0001055,1.391e-05,0.0,0 STARLINK-5043,1 53894U 22119J   24053.42598923  .00001391  00000-0  10550-3 0  9998,2 53894  53.2176  74.2660 0001521 100.9979 259.1184 15.08838892 79024,6917.884,95.438,540.801,538.697,0.0
53894.0,STARLINK-5043,PAYLOAD,2024-02-22 18:10:21,15.08842155,0.0001432,53.2172,72.7775,95.1667,264.9489,6.7411e-05,7.85e-06,0.0,0 STARLINK-5043,1 53894U 22119J   24053.75718786  .00000785  00000-0  67411-4 0  9990,2 53894  53.2172  72.7775 0001432  95.1667 264.9489 15.08842155 79074,6917.874,95.437,540.729,538.748,0.0
53894.0,STARLINK-5043,PAYLOAD,2024-02-23 08:28:49,15.0884507,0.0001436,53.2176,70.1002,90.5254,269.5903,6.9604e-05,8.2e-06,0.0,0 STARLINK-5043,1 53894U 22119J   24054.35334723  .00000820  00000-0  69604-4 0  9998,2 53894  53.2176  70.1002 0001436  90.5254 269.5903 15.08845070 78742,6917.865,95.437,540.723,538.736,0.0
53894.0,STARLINK-5043,PAYLOAD,2024-02-23 18:01:07,15.08847839,0.0001457,53.2176,68.3162,85.4972,274.6186,9.0533e-05,1.153e-05,0.0,0 STARLINK-5043,1 53894U 22119J   24054.75078497  .00001153  00000-0  90533-4 0  9990,2 53894  53.2176  68.3162 0001457  85.4972 274.6186 15.08847839 79220,6917.856,95.437,540.729,538.713,0.0
53894.0,STARLINK-5043,PAYLOAD,2024-02-24 00:22:40,15.08837795,0.0001483,53.2172,67.1272,85.9385,274.1776,0.00013003,1.782e-05,0.0,0 STARLINK-5043,1 53894U 22119J   24055.01575148  .00001782  00000-0  13003-3 0  9999,2 53894  53.2172  67.1272 0001483  85.9385 274.1776 15.08837795 78844,6917.887,95.438,540.778,538.726,0.0
53894.0,STARLINK-5043,PAYLOAD,2024-02-24 08:19:36,15.08841132,0.0001486,53.2173,65.6411,92.7712,267.345,6.7922e-05,7.93e-06,0.0,0 STARLINK-5043,1 53894U 22119J   24055.34695122  .00000793  00000-0  67922-4 0  9991,2 53894  53.2173  65.6411 0001486  92.7712 267.3450 15.08841132 79312,6917.877,95.437,540.77,538.714,0.0
53894.0,STARLINK-5043,PAYLOAD,2024-02-24 17:51:55,15.08847002,0.0001559,53.2176,63.8568,84.2552,275.8618,3.5296e-05,2.74e-06,0.0,0 STARLINK-5043,1 53894U 22119J   24055.74438803  .00000274  00000-0  35296-4 0  9999,2 53894  53.2176  63.8568 0001559  84.2552 275.8618 15.08847002 79375,6917.859,95.437,540.802,538.645,0.0
53894.0,STARLINK-5043,PAYLOAD,2024-02-25 04:59:36,15.08854281,0.0001671,53.2174,61.7762,82.0484,278.0698,-6.67e-05,-1.35e-05,0.0,0 STARLINK-5043,1 53894U 22119J   24056.20806426 -.00001350  00000-0 -66700-4 0  9993,2 53894  53.2174  61.7762 0001671  82.0484 278.0698 15.08854281 79023,6917.837,95.437,540.858,538.546,0.0
53894.0,STARLINK-5043,PAYLOAD,2024-02-25 06:34:59,15.08847615,0.0001536,53.2173,61.477,89.1339,270.9829,0.00012128,1.643e-05,0.0,0 STARLINK-5043,1 53894U 22119J   24056.27430535  .00001643  00000-0  12128-3 0  9991,2 53894  53.2173  61.4770 0001536  89.1339 270.9829 15.08847615 79452,6917.857,95.437,540.785,538.66,0.0
53894.0,STARLINK-5043,PAYLOAD,2024-02-25 17:42:41,15.08848659,0.0001453,53.2174,59.3958,88.5609,271.555,0.00010092,1.319e-05,0.0,0 STARLINK-5043,1 53894U 22119J   24056.73798343  .00001319  00000-0  10092-3 0  9994,2 53894  53.2174  59.3958 0001453  88.5609 271.5550 15.08848659 79523,6917.854,95.437,540.724,538.714,0.0
53894.0,STARLINK-5043,PAYLOAD,2024-02-26 03:15:00,15.08841944,0.0001504,53.2175,57.6123,87.0191,273.0973,0.00011121,1.482e-05,0.0,0 STARLINK-5043,1 53894U 22119J   24057.13542742  .00001482  00000-0  11121-3 0  9994,2 53894  53.2175  57.6123 0001504  87.0191 273.0973 15.08841944 79162,6917.874,95.437,540.78,538.699,0.0
53894.0,STARLINK-5043,PAYLOAD,2024-02-26 06:25:46,15.08846417,0.0001513,53.2173,57.017,89.9706,270.1459,0.0001211,1.64e-05,0.0,0 STARLINK-5043,1 53894U 22119J   24057.26790416  .00001640  00000-0  12110-3 0  9996,2 53894  53.2173  57.0170 0001513  89.9706 270.1459 15.08846417 79605,6917.861,95.437,540.772,538.679,0.0
53894.0,STARLINK-5043,PAYLOAD,2024-02-27 03:05:49,15.08818693,0.0001506,53.2173,53.1509,97.5655,262.5509,0.00023684,3.481e-05,0.0,0 STARLINK-5043,1 53894U 22119J   24058.12903976  .00003481  00000-0  23684-3 0  9992,2 53894  53.2173  53.1509 0001506  97.5655 262.5509 15.08818693 79312,6917.946,95.439,540.852,538.769,0.0
53894.0,STARLINK-5043,PAYLOAD,2024-02-27 06:16:35,15.08826078,0.0001509,53.2181,52.5572,90.8086,269.3079,0.00013555,1.869e-05,0.0,0 STARLINK-5043,1 53894U 22119J   24058.26151761  .00001869  00000-0  13555-3 0  9998,2 53894  53.2181  52.5572 0001509  90.8086 269.3079 15.08826078 79752,6917.923,95.438,540.832,538.744,0.0
53894.0,STARLINK-5043,PAYLOAD,2024-02-28 02:56:35,15.0884207,0.0001503,53.2181,48.6905,91.4975,268.6189,6.2849e-05,7.12e-06,0.0,0 STARLINK-5043,1 53894U 22119J   24059.12262869  .00000712  00000-0  62849-4 0  9993,2 53894  53.2181  48.6905 0001503  91.4975 268.6189 15.08842070 79468,6917.874,95.437,540.779,538.699,0.0
53894.0,STARLINK-5043,PAYLOAD,2024-02-28 09:18:07,15.08838696,0.0001522,53.2177,47.4998,97.0842,263.0323,0.00022414,3.281e-05,0.0,0 STARLINK-5043,1 53894U 22119J   24059.38758633  .00003281  00000-0  22414-3 0  9997,2 53894  53.2177  47.4998 0001522  97.0842 263.0323 15.08838696 79927,6917.884,95.438,540.802,538.696,0.0
53894.0,STARLINK-5043,PAYLOAD,2024-02-28 15:39:40,15.08843857,0.0001267,53.2162,46.3089,91.8523,268.2614,6.1372e-06,-1.9e-06,0.0,0 STARLINK-5043,1 53894U 22119J   24059.65254683 -.00000190  00000-0  61372-5 0  9998,2 53894  53.2162  46.3089 0001267  91.8523 268.2614 15.08843857 79963,6917.869,95.437,540.61,538.857,0.0
53894.0,STARLINK-5043,PAYLOAD,2024-02-29 04:22:45,15.08835352,0.0001575,53.2183,43.9316,93.8521,266.2651,9.2965e-05,1.192e-05,0.0,0 STARLINK-5043,1 53894U 22119J   24060.18247464  .00001192  00000-0  92965-4 0  9990,2 53894  53.2183  43.9316 0001575  93.8521 266.2651 15.08835352 79627,6917.895,95.438,540.849,538.67,0.0
53894.0,STARLINK-5043,PAYLOAD,2024-02-29 05:58:09,15.08835698,0.0001644,53.2189,43.6334,87.4984,272.6196,8.3833e-05,1.046e-05,0.0,0 STARLINK-5043,1 53894U 22119J   24060.24871550  .00001046  00000-0  83833-4 0  9998,2 53894  53.2189  43.6334 0001644  87.4984 272.6196 15.08835698 80056,6917.894,95.438,540.896,538.621,0.0
